[{"OBJECT_NAME":"STARLINK-6330","OBJECT_ID":"2023-094X","EPOCH":"2026-03-09T22:00:01.999584","MEAN_MOTION":15.14782583,"ECCENTRICITY":0.00015787,"INCLINATION":43.0002,"RA_OF_ASC_NODE":28.1806,"ARG_OF_PERICENTER":279.3324,"MEAN_ANOMALY":121.2544,"EPHEMERIS_TYPE":0,"CLASSIFICATION_TYPE":"U","NORAD_CAT_ID":57239,"ELEMENT_SET_NO":999,"REV_AT_EPOCH":572,"BSTAR":0.0041843457,"MEAN_MOTION_DOT":0.00079712,"MEAN_MOTION_DDOT":0},{"OBJECT_NAME":"LEMUR-2-TILLINFINITY","OBJECT_ID":"2025-061F","EPOCH":"2026-03-09T21:40:30.357696","MEAN_MOTION":15.139452,"ECCENTRICITY":0.00168906,"INCLINATION":97.5532,"RA_OF_ASC_NODE":45.5587,"ARG_OF_PERICENTER":226.702,"MEAN_ANOMALY":133.2804,"EPHEMERIS_TYPE":0,"CLASSIFICATION_TYPE":"U","NORAD_CAT_ID":63356,"ELEMENT_SET_NO":999,"REV_AT_EPOCH":5261,"BSTAR":0.00030453504,"MEAN_MOTION_DOT":5.472e-5,"MEAN_MOTION_DDOT":0}]
